OBJECT_NAME,OBJECT_ID,EPOCH,MEAN_MOTION,ECCENTRICITY,INCLINATION,RA_OF_ASC_NODE,ARG_OF_PERICENTER,MEAN_ANOMALY,EPHEMERIS_TYPE,CLASSIFICATION_TYPE,NORAD_CAT_ID,ELEMENT_SET_NO,REV_AT_EPOCH,BSTAR,MEAN_MOTION_DOT,MEAN_MOTION_DDOT
STARLINK-34583,2025-142T,2026-07-11T20:12:17.586144,14.98330543,.0002707,70.0036,1.5519,267.2153,92.8696,0,U,64713,999,5805,.52489E-3,.6175E-4,0
STARLINK-34533,2025-142V,2026-07-11T19:30:09.643968,14.98377831,.0003645,70.0001,1.4776,272.7207,87.3535,0,U,64715,999,5805,.69264E-3,.8192E-4,0
STARLINK-34548,2025-142W,2026-07-11T20:42:16.759008,14.98343499,.0003474,70.0008,1.2513,272.8081,87.2681,0,U,64716,999,5806,.26096E-3,.3023E-4,0
STARLINK-34568,2025-142X,2026-07-11T19:42:12.426624,14.98335761,.0003035,70.0019,1.5080,266.5242,93.5570,0,U,64717,999,5808,.15338E-3,.1738E-4,0
STARLINK-34546,2025-142Y,2026-07-11T20:30:16.037856,14.98321976,.0003364,70.0011,1.2212,273.1743,86.9031,0,U,64718,999,5825,.3548E-3,.4142E-4,0
STARLINK-34577,2025-142Z,2026-07-11T19:48:14.312160,14.98323672,.0002253,70.0021,1.4879,276.0950,83.9952,0,U,64719,999,5808,.29014E-3,.337E-4,0
STARLINK-34562,2025-144B,2026-07-11T16:27:00.446976,15.30196013,.0001072,53.1588,325.2792,61.0824,299.0284,0,U,64725,999,5867,.29184E-3,.8293E-4,0
STARLINK-34557,2025-144C,2026-07-11T15:22:38.936352,15.34395678,.0001176,53.1609,325.0006,85.5495,274.5642,0,U,64726,999,5869,.47105E-3,.1557E-3,0
STARLINK-34242,2025-144D,2026-07-11T16:37:39.004320,15.30218582,.0001186,53.1607,325.3232,64.2376,295.8747,0,U,64727,999,5869,.3058E-3,.8713E-4,0
STARLINK-34588,2025-144F,2026-07-11T16:17:53.463264,15.30202820,.0001239,53.1597,325.2388,83.5467,276.5675,0,U,64729,999,5869,.30354E-3,.8642E-4,0
STARLINK-34606,2025-144G,2026-07-11T16:23:06.550080,15.34406986,.0000258,53.1611,324.5515,303.1049,56.9929,0,U,64730,999,5870,.68525E-3,.22852E-3,0
STARLINK-34552,2025-144H,2026-07-11T15:35:21.708384,15.30217244,.0000913,53.1612,325.0513,47.0615,313.0463,0,U,64731,999,5869,.70329E-3,.20539E-3,0
STARLINK-34596,2025-144J,2026-07-11T16:07:57.915840,15.34405356,.0001229,53.1600,324.4854,81.2438,278.8703,0,U,64732,999,5870,.27186E-3,.8822E-4,0
STARLINK-34130,2025-144N,2026-07-11T16:35:13.874784,15.34388482,.0001198,53.1619,324.6026,62.8778,297.2347,0,U,64736,999,5870,.65919E-3,.21953E-3,0
STARLINK-34619,2025-144P,2026-07-11T15:09:40.060224,15.30203694,.0001085,53.1616,325.6472,73.3268,286.7852,0,U,64737,999,5868,.38276E-3,.10995E-3,0
STARLINK-34597,2025-144Q,2026-07-11T16:20:05.632800,15.34387389,.0001591,53.1596,324.5353,85.2461,274.8723,0,U,64738,999,5868,.61191E-3,.20346E-3,0
STARLINK-34471,2025-144R,2026-07-11T16:19:24.419136,15.30201191,.0000923,53.1596,325.2417,73.6279,286.4823,0,U,64739,999,5863,.24772E-3,.6985E-4,0
STARLINK-34208,2025-144S,2026-07-11T15:18:48.118752,15.34404336,.0001043,53.1592,320.7234,95.0105,265.1017,0,U,64740,999,5875,.40197E-3,.13231E-3,0
STARLINK-34205,2025-144T,2026-07-11T16:17:03.524064,15.34389639,.0001764,53.1628,324.5256,48.8849,311.2305,0,U,64741,999,5870,.20557E-3,.6573E-4,0
STARLINK-34607,2025-144U,2026-07-11T16:28:31.634400,15.30198688,.0001415,53.1613,325.2796,53.4114,306.7017,0,U,64742,999,5867,.28115E-3,.7976E-4,0
STARLINK-34236,2025-144V,2026-07-11T16:26:08.911104,15.34388999,.0000606,53.1607,324.5579,75.4059,284.7010,0,U,64743,999,5870,.61005E-3,.20284E-3,0
STARLINK-34185,2025-144W,2026-07-11T15:30:47.003904,15.30199018,.0001162,53.1609,325.0336,83.0590,277.0543,0,U,64744,999,5869,.5651E-3,.16414E-3,0
