STARLINK-34583          
1 64713U 25142T   26192.84187021  .00006175  00000+0  52489-3 0  9995
2 64713  70.0036   1.5519 0002706 267.2153  92.8696 14.98330543 58059
STARLINK-34533          
1 64715U 25142V   26192.81261163  .00008192  00000+0  69264-3 0  9994
2 64715  70.0001   1.4776 0003645 272.7207  87.3535 14.98377831 58053
STARLINK-34548          
1 64716U 25142W   26192.86269398  .00003023  00000+0  26096-3 0  9992
2 64716  70.0008   1.2513 0003474 272.8081  87.2681 14.98343499 58064
STARLINK-34568          
1 64717U 25142X   26192.82097717  .00001738  00000+0  15338-3 0  9991
2 64717  70.0019   1.5080 0003034 266.5242  93.5570 14.98335761 58082
STARLINK-34546          
1 64718U 25142Y   26192.85435230  .00004142  00000+0  35480-3 0  9993
2 64718  70.0011   1.2212 0003363 273.1743  86.9031 14.98321976 58254
STARLINK-34577          
1 64719U 25142Z   26192.82516565  .00003370  00000+0  29014-3 0  9990
2 64719  70.0021   1.4879 0002253 276.0950  83.9952 14.98323672 58081
STARLINK-34562          
1 64725U 25144B   26192.68542185  .00008293  00000+0  29184-3 0  9997
2 64725  53.1588 325.2792 0001072  61.0824 299.0284 15.30196014 58677
STARLINK-34557          
1 64726U 25144C   26192.64072843  .00015570  00000+0  47105-3 0  9992
2 64726  53.1609 325.0006 0001175  85.5495 274.5642 15.34395678 58696
STARLINK-34242          
1 64727U 25144D   26192.69281255  .00008713  00000+0  30580-3 0  9997
2 64727  53.1607 325.3232 0001185  64.2376 295.8747 15.30218582 58698
STARLINK-34588          
1 64729U 25144F   26192.67909101  .00008642  00000+0  30354-3 0  9994
2 64729  53.1597 325.2388 0001239  83.5467 276.5675 15.30202820 58698
STARLINK-34606          
1 64730U 25144G   26192.68271471  .00022852  00000+0  68525-3 0  9999
2 64730  53.1611 324.5515 0000258 303.1049  56.9929 15.34406986 58705
STARLINK-34552          
1 64731U 25144H   26192.64955681  .00020539  00000+0  70329-3 0  9993
2 64731  53.1612 325.0513 0000913  47.0615 313.0463 15.30217244 58693
STARLINK-34596          
1 64732U 25144J   26192.67219811  .00008822  00000+0  27186-3 0  9999
2 64732  53.1600 324.4854 0001229  81.2438 278.8703 15.34405356 58700
STARLINK-34130          
1 64736U 25144N   26192.69113282  .00021953  00000+0  65919-3 0  9996
2 64736  53.1619 324.6026 0001198  62.8778 297.2347 15.34388482 58703
STARLINK-34619          
1 64737U 25144P   26192.63171366  .00010995  00000+0  38276-3 0  9998
2 64737  53.1616 325.6472 0001084  73.3268 286.7852 15.30203695 58681
STARLINK-34597          
1 64738U 25144Q   26192.68062076  .00020346  00000+0  61191-3 0  9994
2 64738  53.1596 324.5353 0001591  85.2461 274.8723 15.34387390 58689
STARLINK-34471          
1 64739U 25144R   26192.68014374  .00006985  00000+0  24772-3 0  9990
2 64739  53.1596 325.2417 0000922  73.6279 286.4823 15.30201192 58630
STARLINK-34208          
1 64740U 25144S   26192.63805694  .00013231  00000+0  40197-3 0  9991
2 64740  53.1592 320.7234 0001043  95.0105 265.1017 15.34404336 58757
STARLINK-34205          
1 64741U 25144T   26192.67851302  .00006573  00000+0  20557-3 0  9992
2 64741  53.1628 324.5256 0001764  48.8849 311.2305 15.34389639 58701
STARLINK-34607          
1 64742U 25144U   26192.68647725  .00007976  00000+0  28115-3 0  9992
2 64742  53.1613 325.2796 0001415  53.4114 306.7017 15.30198688 58676
STARLINK-34236          
1 64743U 25144V   26192.68482537  .00020284  00000+0  61005-3 0  9993
2 64743  53.1607 324.5579 0000605  75.4059 284.7010 15.34389000 58709
STARLINK-34185          
1 64744U 25144W   26192.64637737  .00016414  00000+0  56510-3 0  9999
2 64744  53.1609 325.0336 0001161  83.0590 277.0543 15.30199018 58690
